[{"CCSDS_OMM_VERS":"2.0","COMMENT":"GENERATED VIA SPACE-TRACK.ORG API","CREATION_DATE":"2019-02-19T17:02:00","ORIGINATOR":"18 SPCS","OBJECT_NAME":"TBA - TO BE ASSIGNED","OBJECT_ID":"1977-068","CENTER_NAME":"EARTH","REF_FRAME":"TEME","TIME_SYSTEM":"UTC","MEAN_ELEMENT_THEORY":"SGP4","EPOCH":"2019-02-16T19:05:13.153632","MEAN_MOTION":"0.94773170","ECCENTRICITY":"0.21382780","INCLINATION":"32.1148","RA_OF_ASC_NODE":"8.8429","ARG_OF_PERICENTER":"282.0086","MEAN_ANOMALY":"53.9542","EPHEMERIS_TYPE":"0","CLASSIFICATION_TYPE":"U","NORAD_CAT_ID":"84585","ELEMENT_SET_NO":"999","REV_AT_EPOCH":"12026","BSTAR":"0.00000000000000","MEAN_MOTION_DOT":"-0.00000158","MEAN_MOTION_DDOT":"0.0000000000000","SEMIMAJOR_AXIS":"43780.249","PERIOD":"1519.417","APOAPSIS":"46763.549","PERIAPSIS":"28040.680","OBJECT_TYPE":"TBA","RCS_SIZE":null,"COUNTRY_CODE":null,"LAUNCH_DATE":null,"SITE":null,"DECAY_DATE":null,"FILE":"2412785","GP_ID":"126822622","TLE_LINE0":"0 TBA - TO BE ASSIGNED","TLE_LINE1":"1 84585U 77068    19047.79529113 -.00000158 +00000-0 +00000-0 0  9991","TLE_LINE2":"2 84585 032.1148 008.8429 2138278 282.0086 053.9542 00.94773170120266"},{"CCSDS_OMM_VERS":"2.0","COMMENT":"GENERATED VIA SPACE-TRACK.ORG API","CREATION_DATE":"2021-11-04T17:50:53","ORIGINATOR":"18 SPCS","OBJECT_NAME":"TBA - TO BE ASSIGNED","OBJECT_ID":"","CENTER_NAME":"EARTH","REF_FRAME":"TEME","TIME_SYSTEM":"UTC","MEAN_ELEMENT_THEORY":"SGP4","EPOCH":"2021-11-04T08:04:49.788768","MEAN_MOTION":"2.57462032","ECCENTRICITY":"0.70434050","INCLINATION":"2.1012","RA_OF_ASC_NODE":"111.4786","ARG_OF_PERICENTER":"149.2074","MEAN_ANOMALY":"285.4880","EPHEMERIS_TYPE":"0","CLASSIFICATION_TYPE":"U","NORAD_CAT_ID":"84588","ELEMENT_SET_NO":"999","REV_AT_EPOCH":"6826","BSTAR":"0.00605510000000","MEAN_MOTION_DOT":"0.00017417","MEAN_MOTION_DDOT":"0.0000000000000","SEMIMAJOR_AXIS":"22486.734","PERIOD":"559.306","APOAPSIS":"31946.916","PERIAPSIS":"270.281","OBJECT_TYPE":"TBA","RCS_SIZE":null,"COUNTRY_CODE":null,"LAUNCH_DATE":null,"SITE":null,"DECAY_DATE":null,"FILE":"3200777","GP_ID":"188874092","TLE_LINE0":"0 TBA - TO BE ASSIGNED","TLE_LINE1":"1 84588U          21308.33668737 +.00017417 +00000+0 +60551-2 0  9998","TLE_LINE2":"2 84588   2.1012 111.4786 7043405 149.2074 285.4880  2.57462032 68267"},{"CCSDS_OMM_VERS":"2.0","COMMENT":"GENERATED VIA SPACE-TRACK.ORG API","CREATION_DATE":"2021-09-24T18:51:50","ORIGINATOR":"18 SPCS","OBJECT_NAME":"TBA - TO BE ASSIGNED","OBJECT_ID":"","CENTER_NAME":"EARTH","REF_FRAME":"TEME","TIME_SYSTEM":"UTC","MEAN_ELEMENT_THEORY":"SGP4","EPOCH":"2021-09-07T06:11:23.570016","MEAN_MOTION":"2.17920889","ECCENTRICITY":"0.72895590","INCLINATION":"18.3216","RA_OF_ASC_NODE":"243.3564","ARG_OF_PERICENTER":"279.7287","MEAN_ANOMALY":"11.6942","EPHEMERIS_TYPE":"0","CLASSIFICATION_TYPE":"U","NORAD_CAT_ID":"84597","ELEMENT_SET_NO":"999","REV_AT_EPOCH":"3449","BSTAR":"0.00545580000000","MEAN_MOTION_DOT":"0.00001285","MEAN_MOTION_DDOT":"0.0000000000000","SEMIMAJOR_AXIS":"25130.585","PERIOD":"660.790","APOAPSIS":"37071.538","PERIAPSIS":"433.362","OBJECT_TYPE":"TBA","RCS_SIZE":null,"COUNTRY_CODE":null,"LAUNCH_DATE":null,"SITE":null,"DECAY_DATE":null,"FILE":"3126001","GP_ID":"185365834","TLE_LINE0":"0 TBA - TO BE ASSIGNED","TLE_LINE1":"1 84597U          21250.25791169 +.00001285 +00000+0 +54558-2 0  9997","TLE_LINE2":"2 84597  18.3216 243.3564 7289559 279.7287  11.6942  2.17920889 34499"},{"CCSDS_OMM_VERS":"2.0","COMMENT":"GENERATED VIA SPACE-TRACK.ORG API","CREATION_DATE":"2020-11-11T16:40:18","ORIGINATOR":"18 SPCS","OBJECT_NAME":"TBA - TO BE ASSIGNED","OBJECT_ID":null,"CENTER_NAME":"EARTH","REF_FRAME":"TEME","TIME_SYSTEM":"UTC","MEAN_ELEMENT_THEORY":"SGP4","EPOCH":"2020-06-26T09:44:48.384384","MEAN_MOTION":"5.36889248","ECCENTRICITY":"0.51794400","INCLINATION":"64.2396","RA_OF_ASC_NODE":"106.2173","ARG_OF_PERICENTER":"10.2998","MEAN_ANOMALY":"357.1851","EPHEMERIS_TYPE":"0","CLASSIFICATION_TYPE":"U","NORAD_CAT_ID":"84624","ELEMENT_SET_NO":"999","REV_AT_EPOCH":"5412","BSTAR":"0.00967850000000","MEAN_MOTION_DOT":"0.00109163","MEAN_MOTION_DDOT":"0.0000000000000","SEMIMAJOR_AXIS":"13776.705","PERIOD":"268.211","APOAPSIS":"14534.132","PERIAPSIS":"263.008","OBJECT_TYPE":"TBA","RCS_SIZE":null,"COUNTRY_CODE":null,"LAUNCH_DATE":null,"SITE":null,"DECAY_DATE":null,"FILE":"2875083","GP_ID":"165354907","TLE_LINE0":"0 TBA - TO BE ASSIGNED","TLE_LINE1":"1 84624U          20178.40611556 +.00109163 +00000+0 +96785-2 0  9996","TLE_LINE2":"2 84624  64.2396 106.2173 5179440  10.2998 357.1851  5.36889248054120"},{"CCSDS_OMM_VERS":"2.0","COMMENT":"GENERATED VIA SPACE-TRACK.ORG API","CREATION_DATE":"2019-10-02T17:30:56","ORIGINATOR":"18 SPCS","OBJECT_NAME":"TBA - TO BE ASSIGNED","OBJECT_ID":null,"CENTER_NAME":"EARTH","REF_FRAME":"TEME","TIME_SYSTEM":"UTC","MEAN_ELEMENT_THEORY":"SGP4","EPOCH":"2019-10-01T17:19:06.511296","MEAN_MOTION":"3.86873620","ECCENTRICITY":"0.58197370","INCLINATION":"54.9674","RA_OF_ASC_NODE":"119.1226","ARG_OF_PERICENTER":"102.0929","MEAN_ANOMALY":"325.4040","EPHEMERIS_TYPE":"0","CLASSIFICATION_TYPE":"U","NORAD_CAT_ID":"84646","ELEMENT_SET_NO":"999","REV_AT_EPOCH":"8059","BSTAR":"0.04807200000000","MEAN_MOTION_DOT":"0.00002867","MEAN_MOTION_DDOT":"0.0000000000000","SEMIMAJOR_AXIS":"17140.458","PERIOD":"372.214","APOAPSIS":"20737.619","PERIAPSIS":"787.027","OBJECT_TYPE":"TBA","RCS_SIZE":null,"COUNTRY_CODE":null,"LAUNCH_DATE":null,"SITE":null,"DECAY_DATE":null,"FILE":"2622266","GP_ID":"140503945","TLE_LINE0":"0 TBA - TO BE ASSIGNED","TLE_LINE1":"1 84646U          19274.72160314 +.00002867 +00000+0 +48072-1 0  9999","TLE_LINE2":"2 84646  54.9674 119.1226 5819737 102.0929 325.4040  3.86873620 80593"},{"CCSDS_OMM_VERS":"2.0","COMMENT":"GENERATED VIA SPACE-TRACK.ORG API","CREATION_DATE":"2018-09-28T04:23:20","ORIGINATOR":"18 SPCS","OBJECT_NAME":"TBA - TO BE ASSIGNED","OBJECT_ID":"2000-000","CENTER_NAME":"EARTH","REF_FRAME":"TEME","TIME_SYSTEM":"UTC","MEAN_ELEMENT_THEORY":"SGP4","EPOCH":"2018-08-01T21:25:42.495744","MEAN_MOTION":"2.31549373","ECCENTRICITY":"0.72405090","INCLINATION":"2.3891","RA_OF_ASC_NODE":"46.1249","ARG_OF_PERICENTER":"289.1886","MEAN_ANOMALY":"9.8538","EPHEMERIS_TYPE":"0","CLASSIFICATION_TYPE":"U","NORAD_CAT_ID":"84815","ELEMENT_SET_NO":"999","REV_AT_EPOCH":"7800","BSTAR":"0.00009294900000","MEAN_MOTION_DOT":"0.00000082","MEAN_MOTION_DDOT":"0.0000000000000","SEMIMAJOR_AXIS":"24134.562","PERIOD":"621.897","APOAPSIS":"35231.079","PERIAPSIS":"281.775","OBJECT_TYPE":"TBA","RCS_SIZE":null,"COUNTRY_CODE":null,"LAUNCH_DATE":null,"SITE":null,"DECAY_DATE":null,"FILE":"2336948","GP_ID":"123467981","TLE_LINE0":"0 TBA - TO BE ASSIGNED","TLE_LINE1":"1 84815U          18213.89285296 +.00000082 +00000-0 +92949-4 0  9997","TLE_LINE2":"2 84815 002.3891 046.1249 7240509 289.1886 009.8538 02.31549373078001"},{"CCSDS_OMM_VERS":"2.0","COMMENT":"GENERATED VIA SPACE-TRACK.ORG API","CREATION_DATE":"2021-11-04T17:50:53","ORIGINATOR":"18 SPCS","OBJECT_NAME":"TBA - TO BE ASSIGNED","OBJECT_ID":"","CENTER_NAME":"EARTH","REF_FRAME":"TEME","TIME_SYSTEM":"UTC","MEAN_ELEMENT_THEORY":"SGP4","EPOCH":"2021-11-04T08:27:36.997056","MEAN_MOTION":"2.95786427","ECCENTRICITY":"0.65626250","INCLINATION":"1.7092","RA_OF_ASC_NODE":"82.7702","ARG_OF_PERICENTER":"22.7888","MEAN_ANOMALY":"286.4443","EPHEMERIS_TYPE":"0","CLASSIFICATION_TYPE":"U","NORAD_CAT_ID":"84911","ELEMENT_SET_NO":"999","REV_AT_EPOCH":"8614","BSTAR":"-0.00013239000000","MEAN_MOTION_DOT":"-0.00000024","MEAN_MOTION_DDOT":"0.0000000000000","SEMIMAJOR_AXIS":"20499.803","PERIOD":"486.838","APOAPSIS":"27574.919","PERIAPSIS":"668.416","OBJECT_TYPE":"TBA","RCS_SIZE":null,"COUNTRY_CODE":null,"LAUNCH_DATE":null,"SITE":null,"DECAY_DATE":null,"FILE":"3200777","GP_ID":"188874291","TLE_LINE0":"0 TBA - TO BE ASSIGNED","TLE_LINE1":"1 84911U          21308.35251154 -.00000024 +00000+0 -13239-3 0  9991","TLE_LINE2":"2 84911   1.7092  82.7702 6562625  22.7888 286.4443  2.95786427 86147"},{"CCSDS_OMM_VERS":"2.0","COMMENT":"GENERATED VIA SPACE-TRACK.ORG API","CREATION_DATE":"2021-04-01T18:02:04","ORIGINATOR":"18 SPCS","OBJECT_NAME":"TBA - TO BE ASSIGNED","OBJECT_ID":"","CENTER_NAME":"EARTH","REF_FRAME":"TEME","TIME_SYSTEM":"UTC","MEAN_ELEMENT_THEORY":"SGP4","EPOCH":"2019-02-04T18:09:12.167712","MEAN_MOTION":"1.98859104","ECCENTRICITY":"0.49394860","INCLINATION":"73.0404","RA_OF_ASC_NODE":"300.2820","ARG_OF_PERICENTER":"248.2394","MEAN_ANOMALY":"53.4687","EPHEMERIS_TYPE":"0","CLASSIFICATION_TYPE":"U","NORAD_CAT_ID":"84925","ELEMENT_SET_NO":"999","REV_AT_EPOCH":"6956","BSTAR":"0.00000000000000","MEAN_MOTION_DOT":"0.00000055","MEAN_MOTION_DDOT":"0.0000000000000","SEMIMAJOR_AXIS":"26711.905","PERIOD":"724.131","APOAPSIS":"33528.078","PERIAPSIS":"7139.462","OBJECT_TYPE":"TBA","RCS_SIZE":null,"COUNTRY_CODE":null,"LAUNCH_DATE":null,"SITE":null,"DECAY_DATE":null,"FILE":"3003335","GP_ID":"174606606","TLE_LINE0":"0 TBA - TO BE ASSIGNED","TLE_LINE1":"1 84925U          19035.75639083 +.00000055 +00000-0 +00000-0 0  9997","TLE_LINE2":"2 84925 073.0404 300.2820 4939486 248.2394 053.4687 01.98859104069562"}]